[
    {
        "Altitude(m)": 705783.9804222628,
        "Argument of Periapsis(deg)": 0.011390121186627068,
        "Eccentricity": 0.0,
        "Inclination(deg)": 45.0,
        "Latitude(deg)": 38.17937219378476,
        "Longitude(deg)": -39.31916611817642,
        "Mean Anomaly(deg)": 60.624116647480825,
        "RAAN(deg)": 9.989248058541795,
        "Satellite Name": "Constellation 1 47",
        "Satellite Number": 47,
        "Semi-Major Axis(m)": 7083131.272910544,
        "Time(s)": 190
    },
    {
        "Altitude(m)": 705789.5350553171,
        "Argument of Periapsis(deg)": 0.011450069192872472,
        "Eccentricity": 0.0,
        "Inclination(deg)": 45.0,
        "Latitude(deg)": 38.206187580128876,
        "Longitude(deg)": -39.25405478385001,
        "Mean Anomaly(deg)": 60.684817787730715,
        "RAAN(deg)": 9.989191469376227,
        "Satellite Name": "Constellation 1 47",
        "Satellite Number": 47,
        "Semi-Major Axis(m)": 7083131.272910544,
        "Time(s)": 191
    },
    {
        "Altitude(m)": 705795.0841338184,
        "Argument of Periapsis(deg)": 0.01151001719911788,
        "Eccentricity": 0.0,
        "Inclination(deg)": 45.0,
        "Latitude(deg)": 38.23296201425361,
        "Longitude(deg)": -39.188892719945265,
        "Mean Anomaly(deg)": 60.74551892798062,
        "RAAN(deg)": 9.989134880210656,
        "Satellite Name": "Constellation 1 47",
        "Satellite Number": 47,
        "Semi-Major Axis(m)": 7083131.272910544,
        "Time(s)": 192
    },
    {
        "Altitude(m)": 705800.6276236087,
        "Argument of Periapsis(deg)": 0.011569965205363285,
        "Eccentricity": 0.0,
        "Inclination(deg)": 45.0,
        "Latitude(deg)": 38.25969542757406,
        "Longitude(deg)": -39.123680086140084,
        "Mean Anomaly(deg)": 60.80622006823052,
        "RAAN(deg)": 9.989078291045088,
        "Satellite Name": "Constellation 1 47",
        "Satellite Number": 47,
        "Semi-Major Axis(m)": 7083131.272910544,
        "Time(s)": 193
    },
    {
        "Altitude(m)": 705806.1654905778,
        "Argument of Periapsis(deg)": 0.01162991321160869,
        "Eccentricity": 0.0,
        "Inclination(deg)": 45.0,
        "Latitude(deg)": 38.286387751475914,
        "Longitude(deg)": -39.058416538176516,
        "Mean Anomaly(deg)": 60.86692120848041,
        "RAAN(deg)": 9.989021701879519,
        "Satellite Name": "Constellation 1 47",
        "Satellite Number": 47,
        "Semi-Major Axis(m)": 7083131.272910544,
        "Time(s)": 194
    },
    {
        "Altitude(m)": 705811.6977006476,
        "Argument of Periapsis(deg)": 0.011689861217854095,
        "Eccentricity": 0.0,
        "Inclination(deg)": 45.0,
        "Latitude(deg)": 38.313038917314735,
        "Longitude(deg)": -38.99310223644401,
        "Mean Anomaly(deg)": 60.92762234873032,
        "RAAN(deg)": 9.988965112713949,
        "Satellite Name": "Constellation 1 47",
        "Satellite Number": 47,
        "Semi-Major Axis(m)": 7083131.272910544,
        "Time(s)": 195
    },
    {
        "Altitude(m)": 705817.2242197881,
        "Argument of Periapsis(deg)": 0.0117498092240995,
        "Eccentricity": 0.0,
        "Inclination(deg)": 45.0,
        "Latitude(deg)": 38.339648856417135,
        "Longitude(deg)": -38.9277371735927,
        "Mean Anomaly(deg)": 60.988323488980214,
        "RAAN(deg)": 9.988908523548378,
        "Satellite Name": "Constellation 1 47",
        "Satellite Number": 47,
        "Semi-Major Axis(m)": 7083131.272910544,
        "Time(s)": 196
    },
    {
        "Altitude(m)": 705822.7450140215,
        "Argument of Periapsis(deg)": 0.011809757230344905,
        "Eccentricity": 0.0,
        "Inclination(deg)": 45.0,
        "Latitude(deg)": 38.366217500081106,
        "Longitude(deg)": -38.862321342632235,
        "Mean Anomaly(deg)": 61.04902462923011,
        "RAAN(deg)": 9.98885193438281,
        "Satellite Name": "Constellation 1 47",
        "Satellite Number": 47,
        "Semi-Major Axis(m)": 7083131.272910544,
        "Time(s)": 197
    },
    {
        "Altitude(m)": 705828.2600493986,
        "Argument of Periapsis(deg)": 0.011869705236590313,
        "Eccentricity": 0.0,
        "Inclination(deg)": 45.0,
        "Latitude(deg)": 38.39274477957634,
        "Longitude(deg)": -38.79685473693302,
        "Mean Anomaly(deg)": 61.109725769480015,
        "RAAN(deg)": 9.988795345217241,
        "Satellite Name": "Constellation 1 47",
        "Satellite Number": 47,
        "Semi-Major Axis(m)": 7083131.272910544,
        "Time(s)": 198
    },
    {
        "Altitude(m)": 705833.7692920234,
        "Argument of Periapsis(deg)": 0.011929653242835719,
        "Eccentricity": 0.0,
        "Inclination(deg)": 45.0,
        "Latitude(deg)": 38.41923062614488,
        "Longitude(deg)": -38.73133735022776,
        "Mean Anomaly(deg)": 61.17042690972991,
        "RAAN(deg)": 9.98873875605167,
        "Satellite Name": "Constellation 1 47",
        "Satellite Number": 47,
        "Semi-Major Axis(m)": 7083131.272910544,
        "Time(s)": 199
    }
]